SARSAT 7 (NOAA 15)      
1 25338U 98030A   24052.45473559  .00000284  00000+0  13590-3 0  9990
2 25338  98.5827  81.9511 0009420 309.4404  50.5942 14.26498573340793
GPS BIIR-08             
1 27663U 03005A   24051.53599269  .00000058  00000+0  00000+0 0  9993
2 27663  55.1599 248.6755 0138292  46.7097 324.3537  2.00556354154316
GPS BIIR-11             
1 28190U 04009A   24051.59888101 -.00000055  00000+0  00000+0 0  9994
2 28190  55.5518 309.7312 0093609 143.3215  71.0973  2.00562266145941
GPS BIIR-13             
1 28474U 04045A   24051.48824160 -.00000113  00000+0  00000+0 0  9997
2 28474  55.4408 358.9204 0164035 288.7492 251.5284  2.00559419141427
SARSAT 10 (NOAA 18)     
1 28654U 05018A   24052.45563959  .00000281  00000+0  17412-3 0  9996
2 28654  98.8837 130.3640 0014636  37.9742 322.2459 14.13128463966774
GPS BIIR-14M            
1 28874U 05038A   24051.03375949 -.00000051  00000+0  00000+0 0  9992
2 28874  55.6004 307.2107 0137927 283.2615 267.6708  2.00563794134827
METEOSAT-9 (MSG-2)      
1 28912U 05049B   24051.69283833  .00000117  00000+0  00000+0 0  9991
2 28912   7.4167  61.8366 0000298  29.7711 353.6043  1.00274709 66551
GOES 13                 
1 29155U 06018A   24052.11182275 -.00000206  00000+0  00000+0 0  9994
2 29155   2.3195  86.6864 0088378 250.2180 206.5003  0.99158741 65005
GPS BIIR-16M            
1 29601U 06052A   24050.83741279  .00000064  00000+0  00000+0 0  9991
2 29601  55.1865 247.6735 0087410  80.9521 280.0652  2.00559916126390
GPS BIIR-17M            
1 32260U 07047A   24051.14185308 -.00000040  00000+0  00000+0 0  9996
2 32260  53.5437 115.1407 0152194  73.8076 287.9168  2.00570683119805
GPS BIIR-18M            
1 32384U 07062A   24052.24760494 -.00000048  00000+0  00000+0 0  9995
2 32384  55.7357 308.0085 0024927 147.3996  58.6065  2.00567823118587
SARSAT 12 (NOAA 19)     
1 33591U 09005A   24052.46165119  .00000271  00000+0  17015-3 0  9997
2 33591  99.0647 106.9493 0012945 260.2193  99.7517 14.12931959775140
GOES 14                 
1 35491U 09033A   24051.65076472 -.00000076  00000+0  00000+0 0  9998
2 35491   0.0679 148.3907 0001524 230.1906 257.3295  1.00273600 53618
GOES 15                 
1 36411U 10008A   24052.12565936  .00000029  00000+0  00000+0 0  9993
2 36411   0.0125 145.8576 0004297 136.1830 335.0844  1.00269261 51140
GPS BIIF-2              
1 37753U 11036A   24051.52249146 -.00000108  00000+0  00000+0 0  9999
2 37753  56.7628   4.9092 0125848  56.6480 124.9000  2.00525636 92277
GSAT0101 (GALILEO-PFM)  
1 37846U 11060A   24051.23305065 -.00000106  00000+0  00000+0 0  9998
2 37846  57.1266   4.7241 0003849 350.1469   9.8268  1.70475920 76660
GSAT0102 (GALILEO-FM2)  
1 37847U 11060B   24049.10646536 -.00000103  00000+0  00000+0 0  9990
2 37847  57.1269   4.7815 0005218 329.6012 211.1629  1.70475254 76634
LUCH 5A                 
1 37951U 11074B   24051.93185993 -.00000058  00000+0  00000+0 0  9999
2 37951   6.5816  86.8684 0002779 248.1204 317.9516  1.00268266 44695
METEOSAT-10 (MSG-3)     
1 38552U 12035B   24051.82702726 -.00000016  00000+0  00000+0 0  9996
2 38552   2.7048  59.9371 0001808 277.0172 111.0925  1.00269096 42360
SARSAT 13 (METOP-B)     
1 38771U 12049A   24052.47068877  .00000203  00000+0  11252-3 0  9990
2 38771  98.6444 112.2301 0001259  68.0373 292.0938 14.21474504592963
GPS BIIF-3              
1 38833U 12053A   24051.23291388 -.00000028  00000+0  00000+0 0  9993
2 38833  53.5141 178.2884 0149324  54.9952 306.3544  2.00556679 82433
GSAT0103 (GALILEO-FM3)  
1 38857U 12055A   24051.27234829 -.00000030  00000+0  00000+0 0  9995
2 38857  55.3521 124.8464 0004966 262.0526  97.9350  1.70473554 70557
GSAT0104 (GALILEO-FM4)  
1 38858U 12055B   24051.24159106 -.00000030  00000+0  00000+0 0  9997
2 38858  55.3519 124.8489 0002299 249.9745 110.0445  1.70473743 70558
GPS BIIF-4              
1 39166U 13023A   24051.09810709 -.00000042  00000+0  00000+0 0  9995
2 39166  55.2133 303.3367 0122372  42.8990 318.1023  2.00563435 78876
INSAT-3D                
1 39216U 13038B   24052.48784762 -.00000165  00000+0  00000+0 0  9996
2 39216   0.0570 284.4360 0002855  13.5146 110.6291  1.00271978 38817
GPS BIIF-5              
1 39533U 14008A   24051.59967624 -.00000023  00000+0  00000+0 0  9990
2 39533  53.5990 183.8548 0069625 216.7166 142.7617  2.00561355 73230
LUCH 5V                 
1 39727U 14023A   24051.91741417 -.00000279  00000+0  00000+0 0  9991
2 39727   3.0058  76.6899 0003169 256.5473 242.0891  1.00272071 35860
GPS BIIF-6              
1 39741U 14026A   24051.87908213 -.00000109  00000+0  00000+0 0  9996
2 39741  56.7117   4.4142 0033092 313.3092  46.4052  2.00576699 71537
GPS BIIF-7              
1 40105U 14045A   24051.46930908 -.00000039  00000+0  00000+0 0  9996
2 40105  54.8779 122.3121 0025628 117.6779 242.6302  2.00557958 69077
GSAT0201 (GALILEO 5)    
1 40128U 14050A   24051.04802272 -.00000068  00000+0  00000+0 0  9995
2 40128  49.7744 307.8087 1606220 146.6770 224.5659  1.85519667 62585
GSAT0202 (GALILEO 6)    
1 40129U 14050B   24050.76778600 -.00000067  00000+0  00000+0 0  9990
2 40129  49.7922 306.8946 1604710 147.4683 223.5384  1.85520254 64716
GPS BIIF-8              
1 40294U 14068A   24051.33698934 -.00000026  00000+0  00000+0 0  9992
2 40294  56.3220  63.8397 0049074  59.6762 300.8559  2.00552130 68208
GLONASS-K 2             
1 40315U 14075A   24052.28765968  .00000045  00000+0  00000+0 0  9991
2 40315  63.6288 219.7398 0018345 203.6439 156.2565  2.13101357 71804
GPS BIIF-9              
1 40534U 15013A   24051.47761532  .00000053  00000+0  00000+0 0  9999
2 40534  53.3904 239.2752 0087150  29.2172 331.2790  2.00572691 64823
GSAT0203 (GALILEO 7)    
1 40544U 15017A   24052.18542625 -.00000106  00000+0  00000+0 0  9993
2 40544  56.9219   4.6482 0004751 285.6188  74.3096  1.70475793 55428
GSAT0204 (GALILEO 8)    
1 40545U 15017B   24050.67971860 -.00000106  00000+0  00000+0 0  9993
2 40545  56.9280   4.7041 0004159 275.1145  84.8202  1.70475541 17781
GPS BIIF-10             
1 40730U 15033A   24051.14066349 -.00000039  00000+0  00000+0 0  9992
2 40730  54.6986 301.8666 0092788  17.1802 343.1872  2.00573190 62987
METEOSAT-11 (MSG-4)     
1 40732U 15034A   24052.11530367  .00000054  00000+0  00000+0 0  9995
2 40732   1.1070  65.3977 0002251 210.3195 285.6530  1.00275903 31511
GSAT0205 (GALILEO 9)    
1 40889U 15045A   24051.62150176  .00000053  00000+0  00000+0 0  9990
2 40889  55.2777 245.0164 0006410  41.2221 318.8457  1.70473463 52568
GSAT0206 (GALILEO 10)   
1 40890U 15045B   24051.25555262  .00000055  00000+0  00000+0 0  9998
2 40890  55.2738 245.0218 0004279  42.8500 317.2037  1.70473514 52581
GPS BIIF-11             
1 41019U 15062A   24051.19422198 -.00000026  00000+0  00000+0 0  9994
2 41019  56.3039  63.6977 0094739 224.8751 134.4003  2.00562390 60820
ELEKTRO-L 2             
1 41105U 15074A   24052.39699598 -.00000126  00000+0  00000+0 0  9997
2 41105   4.5432  80.8711 0003074 207.7266 350.6092  1.00273115 30020
GSAT0209 (GALILEO 12)   
1 41174U 15079A   24047.90626242 -.00000033  00000+0  00000+0 0  9992
2 41174  55.3688 124.6474 0003444 307.0846  52.9238  1.70474800 50268
GSAT0208 (GALILEO 11)   
1 41175U 15079B   24051.64545597 -.00000028  00000+0  00000+0 0  9996
2 41175  55.3688 124.5423 0003283 301.2187  58.7958  1.70474820 50903
GPS BIIF-12             
1 41328U 16007A   24051.27713331 -.00000041  00000+0  00000+0 0  9995
2 41328  55.0770 123.1360 0077498 236.3721 122.9320  2.00567635 58836
GSAT0211 (GALILEO 14)   
1 41549U 16030A   24050.59469078  .00000058  00000+0  00000+0 0  9993
2 41549  55.4225 245.0387 0004045  18.2769 341.7593  1.70473533 48202
GSAT0210 (GALILEO 13)   
1 41550U 16030B   24052.05910908  .00000052  00000+0  00000+0 0  9995
2 41550  55.4216 244.9992 0001619   2.1734 357.8452  1.70473747 48201
INSAT-3DR               
1 41752U 16054A   24052.12818302 -.00000086  00000+0  00000+0 0  9996
2 41752   0.0838  94.4448 0013677 183.9519 352.2360  1.00271593 27304
GSAT0207 (GALILEO 15)   
1 41859U 16069A   24049.95973322 -.00000036  00000+0  00000+0 0  9996
2 41859  55.0335 124.6215 0004411 289.1403  70.8511  1.70474753 45142
GSAT0212 (GALILEO 16)   
1 41860U 16069B   24051.57391625 -.00000029  00000+0  00000+0 0  9991
2 41860  55.0318 124.5733 0002670 311.8308  48.1922  1.70475003 45201
GSAT0213 (GALILEO 17)   
1 41861U 16069C   24050.76819158 -.00000033  00000+0  00000+0 0  9993
2 41861  55.0337 124.6021 0004536 268.3212  91.6686  1.70473623 45056
GSAT0214 (GALILEO 18)   
1 41862U 16069D   24050.91455111 -.00000033  00000+0  00000+0 0  9996
2 41862  55.0327 124.5917 0004139 274.7496  85.2455  1.70475120 45184
GOES 16                 
1 41866U 16071A   24052.09850829 -.00000258  00000+0  00000+0 0  9998
2 41866   0.0895 271.7570 0001072  78.5427 120.4451  1.00271907 26609
GSAT-17                 
1 42815U 17040B   24052.13201203 -.00000267  00000+0  00000+0 0  9991
2 42815   0.0554 282.4512 0005417 356.9993  12.1214  1.00272223 24377
GSAT0215 (GALILEO 19)   
1 43055U 17079A   24050.23076501  .00000059  00000+0  00000+0 0  9998
2 43055  55.4000 244.8721 0001262  19.7620 340.2644  1.70474232 38517
GSAT0216 (GALILEO 20)   
1 43056U 17079B   24050.52255251  .00000058  00000+0  00000+0 0  9991
2 43056  55.4000 244.8639 0002024 328.7829  31.2264  1.70474384 38532
GSAT0217 (GALILEO 21)   
1 43057U 17079C   24050.74297708  .00000057  00000+0  00000+0 0  9998
2 43057  55.3979 244.8568 0002506 354.5238   5.4945  1.70474297 38525
GSAT0218 (GALILEO 22)   
1 43058U 17079D   24052.13616219  .00000051  00000+0  00000+0 0  9990
2 43058  55.3970 244.8158 0002121 312.7145  47.2848  1.70474347 38542
GOES 17                 
1 43226U 18022A   24052.51757823 -.00000100  00000+0  00000+0 0  9991
2 43226   0.0196 301.6080 0001732 358.8105 292.1280  1.00272332 21946
GSAT0221 (GALILEO 25)   
1 43564U 18060A   24050.27618884 -.00000105  00000+0  00000+0 0  9997
2 43564  57.3021   4.6704 0005548 296.7580  63.1677  1.70475512 34708
